ORBCOMM FM05            
1 25117U 97084F   25159.64931974  .00001072  00000+0  33889-3 0  9992
2 25117  45.0160  49.0469 0001292 156.5809 203.5102 14.45921576439377
ORBCOMM FM06            
1 25118U 97084G   25159.18440748  .00001370  00000+0  42076-3 0  9995
2 25118  45.0152  51.0271 0000376 107.4399  27.9049 14.46054433440228
ORBCOMM FM07            
1 25119U 97084H   25159.37907557  .00001123  00000+0  35220-3 0  9992
2 25119  45.0148  50.8607 0002120 151.2911 208.8058 14.46050723440240
ORBCOMM FM03            
1 25158U 98007B   25159.75651920  .00000771  00000+0  31630-3 0  9992
2 25158 107.9650 118.2796 0046578 264.6621  94.9203 14.34491686422834
ORBCOMM FM04            
1 25159U 98007C   25159.74218011  .00000757  00000+0  31044-3 0  9995
2 25159 107.9639 121.4658 0042328 262.2251  97.4082 14.34741269423016
ORBCOMM FM17            
1 25413U 98046A   25159.76623838  .00000577  00000+0  24942-3 0  9999
2 25413  44.9951 297.3484 0003943 179.0699 181.0156 14.35084940401966
ORBCOMM FM18            
1 25414U 98046B   25159.46079420  .00000726  00000+0  28141-3 0  9990
2 25414  44.9917 216.4210 0006967 243.4973 116.5161 14.38540983402998
ORBCOMM FM19            
1 25415U 98046C   25159.47894907  .00000750  00000+0  29026-3 0  9997
2 25415  44.9929 218.3202 0005692 240.1798 135.6553 14.38349744402952
